*******************************************************************************
Ephemeris / WWW_USER Thu Dec  5 18:38:22 2024 Pasadena, USA      / Horizons    
*******************************************************************************
Target body name: 62412 (2000 SY178)              {source: JPL#44}
Center body name: Earth (399)                     {source: DE441}
Center-site name: Mauna Kea
*******************************************************************************
Start time      : A.D. 2019-Jan-08 04:08:00.0000 UT      
Stop  time      : A.D. 2019-Jan-08 16:48:00.0000 UT      
Step-size       : 1 minutes
*******************************************************************************
Target pole/equ : undefined
Target radii    : 5.187 km                                                     
Center geodetic : 204.5278, 19.8260847, 4.21024   {E-lon(deg),Lat(deg),Alt(km)}
Center cylindric: 204.5278, 6006.35451, 2151.0229 {E-lon(deg),Dxy(km),Dz(km)}
Center pole/equ : ITRF93                          {East-longitude positive}
Center radii    : 6378.137, 6378.137, 6356.752 km {Equator_a, b, pole_c}       
Target primary  : Sun
Vis. interferer : MOON (R_eq= 1737.400) km        {source: DE441}
Rel. light bend : Sun                             {source: DE441}
Rel. lght bnd GM: 1.3271E+11 km^3/s^2                                          
Small-body perts: Yes                             {source: SB441-N16}
Atmos refraction: NO (AIRLESS)
RA format       : HMS
Time format     : CAL 
Calendar mode   : Mixed Julian/Gregorian
RTS-only print  : NO       
EOP file        : eop.241205.p250303                                           
EOP coverage    : DATA-BASED 1962-JAN-20 TO 2024-DEC-05. PREDICTS-> 2025-MAR-02
Units conversion: 1 au= 149597870.700 km, c= 299792.458 km/s, 1 day= 86400.0 s 
Table cut-offs 1: Elevation (-90.0deg=NO ),Airmass (>38.000=NO), Daylight (YES)
Table cut-offs 2: Solar elongation (  0.0,180.0=NO ),Local Hour Angle( 0.0=NO )
Table cut-offs 3: RA/DEC angular rate (     0.0=NO )                           
*******************************************************************************
Initial IAU76/J2000 heliocentric ecliptic osculating elements (au, days, deg.):
  EPOCH=  2458127.5 ! 2018-Jan-09.00 (TDB)         Residual RMS= .2787         
   EC= .08141730682229319  QR= 2.89613208739257    TP= 2458420.6685284483      
   OM= 329.1525583823792   W=  163.0619562799197   IN= 4.73619265468861        
  Equivalent ICRF heliocentric cartesian coordinates (au, au/d):
   X= 8.831945932166756E-01  Y= 2.532168596675914E+00  Z= 1.360803999508301E+00
  VX=-9.867256226021401E-03 VY= 2.254941400948641E-03 VZ= 7.028227572403328E-04
Asteroid physical parameters (km, seconds, rotational period in hours):        
   GM= n.a.                RAD= 5.187              ROTPER= 3.33                
   H= 13.88                G= .150                 B-V= n.a.                   
                           ALBEDO= .065            STYP= n.a.                  
*******************************************************************************
 Date__(UT)__HR:MN     R.A._________(ICRF)_________DEC
******************************************************
$$SOE
 2019-Jan-08 10:17     10 58 37.236144 +06 47 42.91718
 2019-Jan-08 10:18     10 58 37.234717 +06 47 42.86713
 2019-Jan-08 10:19     10 58 37.233286 +06 47 42.81707
 2019-Jan-08 10:20     10 58 37.231850 +06 47 42.76702
 2019-Jan-08 10:21     10 58 37.230410 +06 47 42.71696
 2019-Jan-08 10:22     10 58 37.228965 +06 47 42.66691
 2019-Jan-08 10:23     10 58 37.227515 +06 47 42.61685
 2019-Jan-08 10:24     10 58 37.226060 +06 47 42.56679
 2019-Jan-08 10:25     10 58 37.224601 +06 47 42.51673
 2019-Jan-08 10:26     10 58 37.223137 +06 47 42.46668
 2019-Jan-08 10:27     10 58 37.221668 +06 47 42.41662
 2019-Jan-08 10:28     10 58 37.220195 +06 47 42.36655
 2019-Jan-08 10:29     10 58 37.218717 +06 47 42.31649
 2019-Jan-08 10:30     10 58 37.217235 +06 47 42.26643
 2019-Jan-08 10:31     10 58 37.215748 +06 47 42.21637
 2019-Jan-08 10:32     10 58 37.214256 +06 47 42.16630
 2019-Jan-08 10:33     10 58 37.212760 +06 47 42.11624
 2019-Jan-08 10:34     10 58 37.211259 +06 47 42.06617
 2019-Jan-08 10:35     10 58 37.209754 +06 47 42.01610
 2019-Jan-08 10:36     10 58 37.208244 +06 47 41.96603
 2019-Jan-08 10:37     10 58 37.206729 +06 47 41.91596
 2019-Jan-08 10:38     10 58 37.205210 +06 47 41.86589
 2019-Jan-08 10:39     10 58 37.203687 +06 47 41.81582
 2019-Jan-08 10:40     10 58 37.202159 +06 47 41.76574
 2019-Jan-08 10:41     10 58 37.200627 +06 47 41.71567
 2019-Jan-08 10:42     10 58 37.199090 +06 47 41.66559
 2019-Jan-08 10:43     10 58 37.197549 +06 47 41.61551
 2019-Jan-08 10:44     10 58 37.196003 +06 47 41.56544
 2019-Jan-08 10:45     10 58 37.194453 +06 47 41.51536
 2019-Jan-08 10:46     10 58 37.192898 +06 47 41.46527
 2019-Jan-08 10:47     10 58 37.191339 +06 47 41.41519
 2019-Jan-08 10:48     10 58 37.189776 +06 47 41.36511
 2019-Jan-08 10:49     10 58 37.188208 +06 47 41.31502
 2019-Jan-08 10:50     10 58 37.186636 +06 47 41.26493
 2019-Jan-08 10:51     10 58 37.185060 +06 47 41.21484
 2019-Jan-08 10:52     10 58 37.183479 +06 47 41.16475
 2019-Jan-08 10:53     10 58 37.181894 +06 47 41.11466
 2019-Jan-08 10:54     10 58 37.180305 +06 47 41.06456
 2019-Jan-08 10:55     10 58 37.178711 +06 47 41.01447
 2019-Jan-08 10:56     10 58 37.177113 +06 47 40.96437
 2019-Jan-08 10:57     10 58 37.175511 +06 47 40.91427
 2019-Jan-08 10:58     10 58 37.173904 +06 47 40.86417
 2019-Jan-08 10:59     10 58 37.172294 +06 47 40.81407
 2019-Jan-08 11:00     10 58 37.170679 +06 47 40.76396
 2019-Jan-08 11:01     10 58 37.169060 +06 47 40.71386
 2019-Jan-08 11:02     10 58 37.167436 +06 47 40.66375
 2019-Jan-08 11:03     10 58 37.165809 +06 47 40.61364
 2019-Jan-08 11:04     10 58 37.164177 +06 47 40.56353
 2019-Jan-08 11:05     10 58 37.162541 +06 47 40.51341
 2019-Jan-08 11:06     10 58 37.160901 +06 47 40.46330
 2019-Jan-08 11:07     10 58 37.159257 +06 47 40.41318
 2019-Jan-08 11:08     10 58 37.157609 +06 47 40.36306
 2019-Jan-08 11:09     10 58 37.155957 +06 47 40.31294
 2019-Jan-08 11:10     10 58 37.154300 +06 47 40.26281
 2019-Jan-08 11:11     10 58 37.152640 +06 47 40.21269
 2019-Jan-08 11:12     10 58 37.150975 +06 47 40.16256
 2019-Jan-08 11:13     10 58 37.149307 +06 47 40.11243
 2019-Jan-08 11:14     10 58 37.147634 +06 47 40.06230
 2019-Jan-08 11:15     10 58 37.145958 +06 47 40.01216
 2019-Jan-08 11:16     10 58 37.144277 +06 47 39.96203
 2019-Jan-08 11:17     10 58 37.142593 +06 47 39.91189
 2019-Jan-08 11:18     10 58 37.140904 +06 47 39.86175
 2019-Jan-08 11:19     10 58 37.139212 +06 47 39.81160
 2019-Jan-08 11:20     10 58 37.137515 +06 47 39.76146
 2019-Jan-08 11:21     10 58 37.135815 +06 47 39.71131
 2019-Jan-08 11:22     10 58 37.134111 +06 47 39.66116
 2019-Jan-08 11:23     10 58 37.132403 +06 47 39.61101
 2019-Jan-08 11:24     10 58 37.130691 +06 47 39.56085
 2019-Jan-08 11:25     10 58 37.128975 +06 47 39.51069
 2019-Jan-08 11:26     10 58 37.127256 +06 47 39.46053
 2019-Jan-08 11:27     10 58 37.125532 +06 47 39.41037
 2019-Jan-08 11:28     10 58 37.123805 +06 47 39.36020
 2019-Jan-08 11:29     10 58 37.122074 +06 47 39.31004
 2019-Jan-08 11:30     10 58 37.120339 +06 47 39.25987
 2019-Jan-08 11:31     10 58 37.118600 +06 47 39.20969
 2019-Jan-08 11:32     10 58 37.116858 +06 47 39.15952
 2019-Jan-08 11:33     10 58 37.115112 +06 47 39.10934
 2019-Jan-08 11:34     10 58 37.113362 +06 47 39.05916
 2019-Jan-08 11:35     10 58 37.111609 +06 47 39.00898
 2019-Jan-08 11:36     10 58 37.109852 +06 47 38.95879
 2019-Jan-08 11:37     10 58 37.108091 +06 47 38.90860
 2019-Jan-08 11:38     10 58 37.106327 +06 47 38.85841
 2019-Jan-08 11:39     10 58 37.104558 +06 47 38.80822
 2019-Jan-08 11:40     10 58 37.102787 +06 47 38.75802
 2019-Jan-08 11:41     10 58 37.101011 +06 47 38.70782
 2019-Jan-08 11:42     10 58 37.099233 +06 47 38.65762
 2019-Jan-08 11:43     10 58 37.097450 +06 47 38.60741
 2019-Jan-08 11:44     10 58 37.095664 +06 47 38.55720
 2019-Jan-08 11:45     10 58 37.093875 +06 47 38.50699
 2019-Jan-08 11:46     10 58 37.092082 +06 47 38.45678
 2019-Jan-08 11:47     10 58 37.090285 +06 47 38.40656
 2019-Jan-08 11:48     10 58 37.088485 +06 47 38.35634
 2019-Jan-08 11:49     10 58 37.086682 +06 47 38.30612
 2019-Jan-08 11:50     10 58 37.084875 +06 47 38.25589
 2019-Jan-08 11:51     10 58 37.083064 +06 47 38.20566
 2019-Jan-08 11:52     10 58 37.081251 +06 47 38.15543
 2019-Jan-08 11:53     10 58 37.079433 +06 47 38.10520
 2019-Jan-08 11:54     10 58 37.077613 +06 47 38.05496
 2019-Jan-08 11:55     10 58 37.075789 +06 47 38.00472
 2019-Jan-08 11:56     10 58 37.073962 +06 47 37.95447
 2019-Jan-08 11:57     10 58 37.072131 +06 47 37.90422
 2019-Jan-08 11:58     10 58 37.070297 +06 47 37.85397
 2019-Jan-08 11:59     10 58 37.068460 +06 47 37.80372
 2019-Jan-08 12:00     10 58 37.066620 +06 47 37.75346
 2019-Jan-08 12:01     10 58 37.064776 +06 47 37.70320
 2019-Jan-08 12:02     10 58 37.062929 +06 47 37.65294
 2019-Jan-08 12:03     10 58 37.061079 +06 47 37.60267
 2019-Jan-08 12:04     10 58 37.059226 +06 47 37.55240
 2019-Jan-08 12:05     10 58 37.057369 +06 47 37.50213
 2019-Jan-08 12:06     10 58 37.055509 +06 47 37.45185
 2019-Jan-08 12:07     10 58 37.053646 +06 47 37.40157
 2019-Jan-08 12:08     10 58 37.051780 +06 47 37.35129
 2019-Jan-08 12:09     10 58 37.049911 +06 47 37.30100
 2019-Jan-08 12:10     10 58 37.048039 +06 47 37.25071
 2019-Jan-08 12:11     10 58 37.046164 +06 47 37.20042
 2019-Jan-08 12:12     10 58 37.044285 +06 47 37.15012
 2019-Jan-08 12:13     10 58 37.042404 +06 47 37.09982
 2019-Jan-08 12:14     10 58 37.040520 +06 47 37.04952
 2019-Jan-08 12:15     10 58 37.038632 +06 47 36.99921
 2019-Jan-08 12:16     10 58 37.036742 +06 47 36.94890
 2019-Jan-08 12:17     10 58 37.034848 +06 47 36.89859
 2019-Jan-08 12:18     10 58 37.032952 +06 47 36.84827
 2019-Jan-08 12:19     10 58 37.031053 +06 47 36.79795
